STARLINK-1068           
1 44772U 19074BM  20112.91667824  .00035978  00000-0  24771-2 0  9999
2 44772  52.9952 128.3388 0000952 113.0031   6.5410 15.05561386 24930
STARLINK-1073           
1 44914U 20001A   20112.91667824  .00033889  00000-0  23343-2 0  9992
2 44914  53.0025 268.3406 0001596 102.5920  76.4013 15.05573460 16147
STARLINK-1084           
1 44915U 20001B   20112.91667824  .00033412  00000-0  23005-2 0  9990
2 44915  53.0035 268.3373 0001319  79.0671 297.9540 15.05595407 16157
STARLINK-1097           
1 44916U 20001C   20112.91667824  .00029707  00000-0  20500-2 0  9990
2 44916  53.0034 268.3389 0001678  96.2548 226.7139 15.05569907 16145
STARLINK-1098           
1 44917U 20001D   20112.91667824  .00039925  00000-0  27447-2 0  9991
2 44917  53.0014 268.3393 0001294  93.5353 265.4772 15.05568554 16147
STARLINK-1099           
1 44918U 20001E   20112.58335648 -.00029329  00000-0 -20011-2 0  9990
2 44918  53.0023 269.8322 0001832 109.9218 187.4354 15.05596492 16833
STARLINK-1101           
1 44919U 20001F   20112.91667824  .00035654  00000-0  24542-2 0  9991
2 44919  53.0006 268.3423 0002060 104.9666 128.0781 15.05573875 16146
STARLINK-1102           
1 44920U 20001G   20112.91667824  .00031540  00000-0  21741-2 0  9991
2 44920  53.0004 268.3411 0001950  85.4972 129.5503 15.05580911 16140
STARLINK-1103           
1 44921U 20001H   20112.91667824  .00034186  00000-0  23557-2 0  9998
2 44921  53.0008 268.3418 0001929 101.2059 149.7816 15.05553420 16147
STARLINK-1104           
1 44922U 20001J   20111.91667824  .00037737  00000-0  25959-2 0  9991
2 44922  53.0024 272.8283 0001330  88.2085 175.7046 15.05571294  1906
STARLINK-1106           
1 44923U 20001K   20112.00001157 -.00008143  00000-0 -54047-3 0  9996
2 44923  53.0002 272.4581 0001474  94.2297 117.5929 15.05572572 16002
STARLINK-1111           
1 44924U 20001L   20112.25002315  .00023851  00000-0  16503-2 0  9996
2 44924  53.0005 271.3352 0001609 109.6306  72.0518 15.05586330  1754
STARLINK-1112           
1 44925U 20001M   20111.83334491  .00023524  00000-0  16289-2 0  9991
2 44925  53.0000 273.2044 0001245  89.6500 280.2858 15.05565395 15986
STARLINK-1113           
1 44926U 20001N   20112.91667824  .00034412  00000-0  23709-2 0  9994
2 44926  53.0036 268.3244 0001417  97.1447 351.9036 15.05556784 16884
STARLINK-1114           
1 44927U 20001P   20112.91667824  .00041733  00000-0  28681-2 0  9993
2 44927  53.0023 268.3374 0001650  84.9430 328.0928 15.05558976 16150
STARLINK-1119           
1 44928U 20001Q   20112.91667824  .00034149  00000-0  23520-2 0  9994
2 44928  53.0028 268.3381 0001709  91.5879 339.4076 15.05573314 16153
STARLINK-1121           
1 44929U 20001R   20112.91667824  .00034117  00000-0  23509-2 0  9997
2 44929  53.0015 268.3441 0001439 102.4905  58.4774 15.05555856 16142
STARLINK-1123           
1 44930U 20001S   20112.91667824  .00030174  00000-0  20812-2 0  9992
2 44930  53.0024 268.3379 0001805  93.3143 247.7198 15.05579904 16146
STARLINK-1128           
1 44931U 20001T   20112.50001157 -.00010594  00000-0 -70829-3 0  9999
2 44931  53.0085 270.1819 0002056  99.4185 267.9721 15.05614041 16829
STARLINK-1130 (DARKSAT) 
1 44932U 20001U   20112.41667824  .00021438  00000-0  14865-2 0  9993
2 44932  53.0019 270.5811 0001461  89.3330 114.1593 15.05567745 17304
STARLINK-1144           
1 44933U 20001V   20112.50001157 -.00011534  00000-0 -77318-3 0  9996
2 44933  53.0008 270.2120 0001887 102.3516  66.9919 15.05602753 17379
STARLINK-1071           
1 44934U 20001W   20112.16667824  .00007532  00000-0  53570-3 0  9993
2 44934  53.0035 251.7045 0001406  78.0346 337.8028 15.05568936 16315
STARLINK-1072           
1 44935U 20001X   20112.91667824 -.00002558  00000-0 -15642-3 0  9990
2 44935  53.0045 248.3331 0001458 104.4291 220.7390 15.05583070 16427
STARLINK-1078           
1 44936U 20001Y   20112.16667824  .00008096  00000-0  57426-3 0  9995
2 44936  53.0027 251.7031 0001288  95.3139 356.4766 15.05574302  1845
STARLINK-1079           
1 44937U 20001Z   20111.91667824  .00008975  00000-0  63436-3 0  9992
2 44937  53.0029 252.8226 0001360  97.2919 168.6710 15.05578986 16271
STARLINK-1082           
1 44938U 20001AA  20112.91667824  .00004521  00000-0  32929-3 0  9990
2 44938  52.9993 248.3560 0001199  93.0608 340.1035 15.05572063 16424
STARLINK-1083           
1 44939U 20001AB  20112.16667824  .00008485  00000-0  60112-3 0  9996
2 44939  52.9858 251.8002 0001346  93.1829 196.7087 15.05560578 16302
STARLINK-1091           
1 44940U 20001AC  20112.58335648 -.00028779  00000-0 -19631-2 0  9999
2 44940  52.9739 249.9981 0001519  87.4953 248.0400 15.05595618 16361
STARLINK-1094           
1 44941U 20001AD  20112.91667824 -.00002118  00000-0 -12615-3 0  9996
2 44941  53.0020 248.3365 0001109  89.0395 146.0959 15.05610260 16423
STARLINK-1096           
1 44942U 20001AE  20112.16667824  .00007653  00000-0  54380-3 0  9996
2 44942  53.0037 251.6995 0001077  98.9029 100.8994 15.05579872  1890
STARLINK-1100           
1 44943U 20001AF  20112.91667824 -.00001715  00000-0 -98539-4 0  9990
2 44943  52.9935 248.3911 0001276  82.8418 332.3864 15.05583862 16429
STARLINK-1108           
1 44944U 20001AG  20112.16667824  .00007808  00000-0  55458-3 0  9997
2 44944  53.0034 251.7057 0001283 105.5387 328.2353 15.05572413 16312
STARLINK-1109           
1 44945U 20001AH  20111.91667824  .00008333  00000-0  59028-3 0  9991
2 44945  52.9751 252.9783 0001458 100.7746 237.2921 15.05586753  1806
STARLINK-1110           
1 44946U 20001AJ  20112.91667824  .00016571  00000-0  11532-2 0  9993
2 44946  53.0037 248.3362 0001202  81.4370  63.7463 15.05599519 16424
STARLINK-1116           
1 44947U 20001AK  20112.91667824 -.00002769  00000-0 -17092-3 0  9998
2 44947  53.0039 248.3347 0001095  99.9517 171.2235 15.05587041 16426
STARLINK-1122           
1 44949U 20001AM  20112.25002315  .00038126  00000-0  26231-2 0  9993
2 44949  53.0008 251.3348 0001581 109.7841 343.9365 15.05560312 16322
STARLINK-1125           
1 44950U 20001AN  20112.58335648 -.00029680  00000-0 -20255-2 0  9996
2 44950  52.9823 249.9433 0001485  85.1856 286.2895 15.05594980 16371
STARLINK-1126           
1 44951U 20001AP  20112.91667824  .00006236  00000-0  44652-3 0  9996
2 44951  53.0005 248.3432 0001261  80.7102  10.4403 15.05601881 17715
STARLINK-1117           
1 44952U 20001AQ  20112.00001157 -.00034262  00000-0 -23424-2 0  9993
2 44952  53.0031 252.4558 0001249  96.9268 189.0264 15.05600863 16286
STARLINK-1124           
1 44953U 20001AR  20112.58335648 -.00032623  00000-0 -22284-2 0  9994
2 44953  52.9997 249.8396 0001317 103.9427  15.5945 15.05608405 17660
STARLINK-1066           
1 44954U 20001AS  20112.91667824  .03500219  00000-0  37168-1 0  9994
2 44954  53.0033 233.3607 0008397 296.3597 273.7812 15.59849969 16578
STARLINK-1069           
1 44955U 20001AT  20112.91667824  .02520995  00000-0  27090-1 0  9990
2 44955  53.0015 233.4096 0009320 278.0138 284.5200 15.59544199 16575
STARLINK-1070           
1 44956U 20001AU  20112.91667824  .02927608  00000-0  31395-1 0  9996
2 44956  53.0026 233.4224 0001570 281.5847 283.5280 15.59630089 16634
STARLINK-1074           
1 44957U 20001AV  20112.91667824  .01083610  00000-0  12533-1 0  9995
2 44957  53.0021 233.4571 0008854 262.6562 280.7079 15.58705551 16632
STARLINK-1075           
1 44958U 20001AW  20112.91667824  .02560214  00000-0  28922-1 0  9996
2 44958  53.0029 233.4369 0001267 235.5478 313.5784 15.58711046 16636
STARLINK-1076           
1 44959U 20001AX  20112.66667824  .03495516  00000-0  39708-1 0  9996
2 44959  53.0011 234.7027 0007224 331.1455 237.1724 15.58056810 16591
STARLINK-1077           
1 44960U 20001AY  20112.91667824  .02596853  00000-0  29109-1 0  9995
2 44960  53.0033 233.4244 0001386 233.5057 318.3922 15.58871990 16631
STARLINK-1080           
1 44961U 20001AZ  20112.91667824  .03409400  00000-0  34821-1 0  9995
2 44961  53.0018 233.4526 0001591 237.8547 308.7148 15.60954535 16630
STARLINK-1081           
1 44962U 20001BA  20112.91667824  .02851628  00000-0  30489-1 0  9994
2 44962  53.0027 233.4085 0001639 284.9884 282.6902 15.59805787 16631
STARLINK-1085           
1 44963U 20001BB  20112.91667824  .02350417  00000-0  25636-1 0  9993
2 44963  53.0023 233.4204 0009119 278.2814 281.6957 15.59399132 17374
STARLINK-1086           
1 44964U 20001BC  20112.91667824  .02788275  00000-0  30627-1 0  9997
2 44964  53.0018 233.4226 0001377 259.1843 298.1459 15.59167907 16632
STARLINK-1087           
1 44965U 20001BD  20112.91667824  .01458395  00000-0  96799-2 0  9997
2 44965  52.9992 233.2737 0001478  14.9192 241.6225 15.72331626 17375
STARLINK-1088           
1 44966U 20001BE  20112.91667824  .02393565  00000-0  27893-1 0  9994
2 44966  53.0011 233.4562 0001650 227.8679 309.6467 15.58096477 16632
STARLINK-1089           
1 44967U 20001BF  20112.91667824  .03207318  00000-0  33401-1 0  9998
2 44967  53.0024 233.4606 0001588 220.2312 321.8781 15.60657933 16635
STARLINK-1090           
1 44968U 20001BG  20112.91667824  .03420796  00000-0  35132-1 0  9999
2 44968  53.0024 233.4555 0001696 225.2741 319.1011 15.60797309 16638
STARLINK-1092           
1 44969U 20001BH  20112.91667824  .02487296  00000-0  29411-1 0  9990
2 44969  53.0027 233.4846 0006892 259.6462 268.7293 15.57595746 16637
STARLINK-1093           
1 44970U 20001BJ  20112.91667824  .02711928  00000-0  30638-1 0  9997
2 44970  53.0025 233.4502 0009020 270.4089 275.9161 15.58528949 16634
STARLINK-1095           
1 44971U 20001BK  20112.91667824  .02649934  00000-0  29457-1 0  9992
2 44971  53.0016 233.4236 0001381 256.3332 298.3202 15.59026544 16635
STARLINK-1107           
1 44972U 20001BL  20112.91667824  .03228204  00000-0  33802-1 0  9996
2 44972  53.0017 233.4591 0001485 215.0494 324.8382 15.60491751 16639
